NORAD_CAT_ID,OBJECT_NAME,OBJECT_TYPE,EPOCH,MEAN_MOTION,ECCENTRICITY,INCLINATION,RA_OF_ASC_NODE,ARG_OF_PERICENTER,MEAN_ANOMALY,BSTAR,MEAN_MOTION_DOT,MEAN_MOTION_DDOT,TLE_LINE0,TLE_LINE1,TLE_LINE2,SEMIMAJOR_AXIS,PERIOD,APOGEE,PERIGEE,DECAYED
50805.0,STARLINK-3333,PAYLOAD,2024-03-31 17:04:22,15.08827741,0.0001352,53.2155,97.3541,83.0466,277.068,-1.5176e-05,-5.29e-06,0.0,0 STARLINK-3333,1 50805U 22001C   24091.71137157 -.00000529  00000-0 -15176-4 0  9993,2 50805  53.2155  97.3541 0001352  83.0466 277.0680 15.08827741123669,6917.918,95.438,540.718,538.848,0.0
50805.0,STARLINK-3333,PAYLOAD,2024-04-01 04:12:04,15.0883358,0.0001399,53.2158,95.2745,86.6324,273.4828,0.00010711,1.417e-05,0.0,0 STARLINK-3333,1 50805U 22001C   24092.17505339  .00001417  00000-0  10711-3 0  9999,2 50805  53.2158  95.2745 0001399  86.6324 273.4828 15.08833580125000,6917.9,95.438,540.733,538.797,0.0
50805.0,STARLINK-3333,PAYLOAD,2024-04-01 07:22:50,15.08834335,0.0001552,53.2168,94.6816,92.54,267.577,0.00015324,2.151e-05,0.0,0 STARLINK-3333,1 50805U 22001C   24092.30753336  .00002151  00000-0  15324-3 0  9997,2 50805  53.2168  94.6816 0001552  92.5400 267.5770 15.08834335123754,6917.898,95.438,540.836,538.689,0.0
50805.0,STARLINK-3333,PAYLOAD,2024-04-01 16:55:09,15.08843276,0.0001418,53.2161,92.8957,87.0273,273.0882,0.00019447,2.809e-05,0.0,0 STARLINK-3333,1 50805U 22001C   24092.70496986  .00002809  00000-0  19447-3 0  9996,2 50805  53.2161  92.8957 0001418  87.0273 273.0882 15.08843276125089,6917.87,95.437,540.716,538.754,0.0
50805.0,STARLINK-3333,PAYLOAD,2024-04-02 08:49:00,15.08862535,0.0001448,53.2157,89.9233,92.4433,267.6725,0.00067967,0.00010552,0.0,0 STARLINK-3333,1 50805U 22001C   24093.36736695  .00010552  00000-0  67967-3 0  9997,2 50805  53.2157  89.9233 0001448  92.4433 267.6725 15.08862535123913,6917.812,95.436,540.678,538.675,0.0
50805.0,STARLINK-3333,PAYLOAD,2024-04-02 16:45:55,15.08864006,0.0001442,53.2156,88.436,90.0838,270.0319,0.00051774,7.967e-05,0.0,0 STARLINK-3333,1 50805U 22001C   24093.69856265  .00007967  00000-0  51774-3 0  9994,2 50805  53.2156  88.4360 0001442  90.0838 270.0319 15.08864006125233,6917.807,95.436,540.67,538.674,0.0
50805.0,STARLINK-3333,PAYLOAD,2024-04-03 08:39:47,15.08843775,0.0001293,53.2155,85.4625,97.6793,262.4346,7.1172e-05,8.45e-06,0.0,0 STARLINK-3333,1 50805U 22001C   24094.36096370  .00000845  00000-0  71172-4 0  9995,2 50805  53.2155  85.4625 0001293  97.6793 262.4346 15.08843775125336,6917.869,95.437,540.628,538.839,0.0
50805.0,STARLINK-3333,PAYLOAD,2024-04-03 22:58:15,15.0884456,0.0001278,53.2144,82.7858,97.4722,262.6416,0.0005512,8.496e-05,0.0,0 STARLINK-3333,1 50805U 22001C   24094.95712471  .00008496  00000-0  55120-3 0  9991,2 50805  53.2144  82.7858 0001278  97.4722 262.6416 15.08844560124157,6917.866,95.437,540.616,538.847,0.0
50805.0,STARLINK-3333,PAYLOAD,2024-04-04 08:30:34,15.0885222,0.0001712,53.2152,80.999,104.1528,255.9655,0.00032803,4.938e-05,0.0,0 STARLINK-3333,1 50805U 22001C   24095.35456229  .00004938  00000-0  32803-3 0  9992,2 50805  53.2152  80.9990 0001712 104.1528 255.9655 15.08852220124215,6917.843,95.437,540.892,538.524,0.0
50805.0,STARLINK-3333,PAYLOAD,2024-04-04 16:27:29,15.08866294,0.0001318,53.2156,79.5129,100.493,259.6211,0.00064061,9.929e-05,0.0,0 STARLINK-3333,1 50805U 22001C   24095.68575370  .00009929  00000-0  64061-3 0  9993,2 50805  53.2156  79.5129 0001318 100.4930 259.6211 15.08866294125536,6917.8,95.436,540.577,538.753,0.0
50805.0,STARLINK-3333,PAYLOAD,2024-04-05 05:10:35,15.08836321,0.0001322,53.2152,77.1351,101.422,258.692,-5.3321e-05,-1.136e-05,0.0,0 STARLINK-3333,1 50805U 22001C   24096.21568337 -.00001136  00000-0 -53321-4 0  9990,2 50805  53.2152  77.1351 0001322 101.4220 258.6920 15.08836321125614,6917.892,95.438,540.671,538.842,0.0
50805.0,STARLINK-3333,PAYLOAD,2024-04-05 08:21:21,15.08837476,0.0001475,53.2152,76.5392,105.4306,254.6849,-2.1725e-05,-6.34e-06,0.0,0 STARLINK-3333,1 50805U 22001C   24096.34816345 -.00000634  00000-0 -21725-4 0  9994,2 50805  53.2152  76.5392 0001475 105.4306 254.6849 15.08837476124369,6917.888,95.438,540.773,538.733,0.0
50805.0,STARLINK-3333,PAYLOAD,2024-04-05 16:18:16,15.08840502,0.0001458,53.2158,75.0529,104.184,255.9314,7.8486e-05,9.61e-06,0.0,0 STARLINK-3333,1 50805U 22001C   24096.67936314  .00000961  00000-0  78486-4 0  9996,2 50805  53.2158  75.0529 0001458 104.1840 255.9314 15.08840502124412,6917.879,95.438,540.752,538.735,0.0
50805.0,STARLINK-3333,PAYLOAD,2024-04-06 05:01:22,15.08842026,0.0001411,53.2157,72.6752,100.1328,259.9823,0.00019092,2.752e-05,0.0,0 STARLINK-3333,1 50805U 22001C   24097.20928446  .00002752  00000-0  19092-3 0  9990,2 50805  53.2157  72.6752 0001411 100.1328 259.9823 15.08842026124498,6917.874,95.437,540.715,538.763,0.0
50805.0,STARLINK-3333,PAYLOAD,2024-04-06 22:30:37,15.08839544,0.0001447,53.216,69.4039,102.3144,257.801,0.00027654,4.116e-05,0.0,0 STARLINK-3333,1 50805U 22001C   24097.93792841  .00004116  00000-0  27654-3 0  9997,2 50805  53.2160  69.4039 0001447 102.3144 257.8010 15.08839544124602,6917.882,95.438,540.748,538.746,0.0
50805.0,STARLINK-3333,PAYLOAD,2024-04-07 08:02:56,15.08834897,0.0001388,53.2164,67.62,100.9256,259.1892,9.8696e-05,1.283e-05,0.0,0 STARLINK-3333,1 50805U 22001C   24098.33537096  .00001283  00000-0  98696-4 0  9998,2 50805  53.2164  67.6200 0001388 100.9256 259.1892 15.08834897124663,6917.896,95.438,540.721,538.801,0.0
50805.0,STARLINK-3333,PAYLOAD,2024-04-07 14:24:28,15.08838562,0.0001379,53.2165,66.4311,99.8503,260.2645,0.0001428,1.985e-05,0.0,0 STARLINK-3333,1 50805U 22001C   24098.60033014  .00001985  00000-0  14280-3 0  9994,2 50805  53.2165  66.4311 0001379  99.8503 260.2645 15.08838562124702,6917.885,95.438,540.704,538.796,0.0
50805.0,STARLINK-3333,PAYLOAD,2024-04-08 04:42:56,15.08839439,0.0001474,53.2178,63.7556,100.7225,259.3933,0.00010839,1.437e-05,0.0,0 STARLINK-3333,1 50805U 22001C   24099.19649129  .00001437  00000-0  10839-3 0  9997,2 50805  53.2178  63.7556 0001474 100.7225 259.3933 15.08839439126060,6917.882,95.438,540.767,538.727,0.0
50805.0,STARLINK-3333,PAYLOAD,2024-04-08 14:15:15,15.08844825,0.0001512,53.2184,61.9715,100.0251,260.0912,0.00010229,1.341e-05,0.0,0 STARLINK-3333,1 50805U 22001C   24099.59392856  .00001341  00000-0  10229-3 0  9990,2 50805  53.2184  61.9715 0001512 100.0251 260.0912 15.08844825124855,6917.866,95.437,540.777,538.685,0.0
50805.0,STARLINK-3333,PAYLOAD,2024-04-09 07:44:30,15.08840831,0.0001483,53.2182,58.7001,100.4975,259.6184,0.00013445,1.852e-05,0.0,0 STARLINK-3333,1 50805U 22001C   24100.32257119  .00001852  00000-0  13445-3 0  9996,2 50805  53.2182  58.7001 0001483 100.4975 259.6184 15.08840831126231,6917.878,95.438,540.769,538.717,0.0
50805.0,STARLINK-3333,PAYLOAD,2024-04-09 14:06:02,15.08849708,0.0001398,53.2185,57.5101,91.5079,268.6074,0.00020812,3.027e-05,0.0,0 STARLINK-3333,1 50805U 22001C   24100.58752581  .00003027  00000-0  20812-3 0  9999,2 50805  53.2185  57.5101 0001398  91.5079 268.6074 15.08849708125006,6917.851,95.437,540.683,538.749,0.0
50805.0,STARLINK-3333,PAYLOAD,2024-04-10 04:24:31,15.08836733,0.0001479,53.2187,54.8351,94.6181,265.498,-2.4192e-05,-6.73e-06,0.0,0 STARLINK-3333,1 50805U 22001C   24101.18369403 -.00000673  00000-0 -24192-4 0  9995,2 50805  53.2187  54.8351 0001479  94.6181 265.4980 15.08836733126368,6917.89,95.438,540.779,538.732,0.0
50805.0,STARLINK-3333,PAYLOAD,2024-04-10 13:56:49,15.08845734,0.000143,53.2182,53.048,82.864,277.2515,0.00010142,1.327e-05,0.0,0 STARLINK-3333,1 50805U 22001C   24101.58112908  .00001327  00000-0  10142-3 0  9999,2 50805  53.2182  53.0480 0001430  82.8640 277.2515 15.08845734125155,6917.863,95.437,540.717,538.739,0.0
50805.0,STARLINK-3333,PAYLOAD,2024-04-11 04:15:18,15.08836215,0.0001442,53.2183,50.3728,89.4476,270.6681,1.7933e-06,-2.59e-06,0.0,0 STARLINK-3333,1 50805U 22001C   24102.17729535 -.00000259  00000-0  17933-5 0  9996,2 50805  53.2183  50.3728 0001442  89.4476 270.6681 15.08836215126510,6917.892,95.438,540.755,538.759,0.0
50805.0,STARLINK-3333,PAYLOAD,2024-04-11 13:47:36,15.08848942,0.0001421,53.2193,48.5897,90.5117,269.6038,0.00010561,1.394e-05,0.0,0 STARLINK-3333,1 50805U 22001C   24102.57472869  .00001394  00000-0  10561-3 0  9993,2 50805  53.2193  48.5897 0001421  90.5117 269.6038 15.08848942125309,6917.853,95.437,540.701,538.735,0.0
50805.0,STARLINK-3333,PAYLOAD,2024-04-12 02:30:42,15.08833477,0.000145,53.2205,46.2076,97.0744,263.0413,0.00011702,1.575e-05,0.0,0 STARLINK-3333,1 50805U 22001C   24103.10465882  .00001575  00000-0  11702-3 0  9999,2 50805  53.2205  46.2076 0001450  97.0744 263.0413 15.08833477126658,6917.9,95.438,540.768,538.762,0.0
50805.0,STARLINK-3333,PAYLOAD,2024-04-12 05:41:28,15.08840074,0.0001425,53.2189,45.6125,93.4584,266.6571,6.964e-05,8.21e-06,0.0,0 STARLINK-3333,1 50805U 22001C   24103.23713617  .00000821  00000-0  69640-4 0  9993,2 50805  53.2189  45.6125 0001425  93.4584 266.6571 15.08840074125408,6917.88,95.438,540.731,538.759,0.0
50805.0,STARLINK-3333,PAYLOAD,2024-04-13 02:21:28,15.08845959,0.0001697,53.2186,41.7465,124.0027,236.1127,0.0001524,2.139e-05,0.0,0 STARLINK-3333,1 50805U 22001C   24104.09825184  .00002139  00000-0  15240-3 0  9991,2 50805  53.2186  41.7465 0001697 124.0027 236.1127 15.08845959126804,6917.862,95.437,540.901,538.553,0.0
50805.0,STARLINK-3333,PAYLOAD,2024-04-13 05:32:15,15.08847843,0.0001433,53.218,41.1522,102.9506,257.1646,0.00013877,1.922e-05,0.0,0 STARLINK-3333,1 50805U 22001C   24104.23073143  .00001922  00000-0  13877-3 0  9990,2 50805  53.2180  41.1522 0001433 102.9506 257.1646 15.08847843125555,6917.856,95.437,540.713,538.73,0.0
50805.0,STARLINK-3333,PAYLOAD,2024-04-14 02:12:16,15.08842862,0.0001464,53.2181,37.287,96.4288,263.6871,8.228e-05,1.022e-05,0.0,0 STARLINK-3333,1 50805U 22001C   24105.09185372  .00001022  00000-0  82280-4 0  9999,2 50805  53.2181  37.2870 0001464  96.4288 263.6871 15.08842862126959,6917.872,95.437,540.749,538.724,0.0
